C/2017 K1 (PANSTARRS),h,03/16.9728/2018,154.0097,225.6512,4.3665,1.001427,7.288896,2000,7.0,4.0
# From MPC119995
C/2017 K2 (PANSTARRS),h,12/20.0271/2022,87.5425,88.2671,236.1529,1.000415,1.800026,2000,1.5,4.0
# From MPC106346
P/2017 K3 (Gasparovic),e,4.2748,354.3000,253.4289,5.580053,0.0747733,0.58088132,78.7600,04/19.0/2020,2000,g 14.5,4.0
# From MPC114598
C/2017 K4 (ATLAS),e,16.6802,298.8701,15.1978,28.42230,0.0065045,0.90678200,5.4096,04/19.0/2020,2000,g 10.0,4.0
# From MPC119995
C/2017 K5 (PANSTARRS),h,03/24.5043/2020,82.2619,102.3737,171.8579,1.006619,7.678686,2000,5.0,4.0
# From MPC114599
C/2017 K6 (Jacques),e,57.2543,85.0521,303.7729,1058,0.0000287,0.99810930,0.0000,01/03.2108/2018,2000,g 11.0,4.0
# From MPC110083
C/2017 M3 (PANSTARRS),e,77.5322,7.0055,110.3590,167.7504,0.0004536,0.97223039,0.0000,04/28.1966/2017,2000,g 10.5,4.0
# From MPC118093
C/2017 M4 (ATLAS),h,01/17.8744/2019,105.6442,65.8642,167.5644,1.001152,3.251656,2000,6.0,4.0
# From MPC118841
C/2017 M5 (TOTAS),h,06/03.7757/2018,15.8819,216.2745,92.7226,1.005047,5.991580,2000,6.5,4.0
# From MPC114599
C/2017 O1 (ASASSN),e,39.8760,25.7800,20.8587,359.0316,0.0001449,0.99583215,0.0000,10/14.7288/2017,2000,g 11.0,4.0
# From MPC114599
P/2017 P1 (PANSTARRS),e,7.6990,221.4013,122.1897,7.887887,0.0444901,0.31030228,29.8569,04/19.0/2020,2000,g 10.0,4.0
# From MPC114599
C/2017 P2 (PANSTARRS),e,50.0611,165.5099,132.3124,1893,0.0000120,0.99869857,0.0000,12/06.6820/2017,2000,g 10.0,4.0
# From MPC114599
P/2017 R1 (PANSTARRS),e,2.5735,143.6231,178.5167,4.134918,0.1172205,0.19554849,129.6057,04/19.0/2020,2000,g 13.5,4.0
# From MPC108595
C/2017 S2 (PANSTARRS),e,12.6804,62.4167,305.9362,20.50479,0.0106150,0.82384941,10.2282,04/19.0/2020,2000,g 13.0,4.0
# From MPC114599
C/2017 S3 (PANSTARRS),h,08/15.9615/2018,99.0951,171.1202,255.8408,1.000048,0.208411,2000,11.0,4.0
# From MPC114599
P/2017 S5 (ATLAS),e,11.8503,252.3861,99.8334,3.169097,0.1747032,0.31378596,173.9645,04/19.0/2020,2000,g 14.0,4.0
# From MPC109591
C/2017 S6 (Catalina),h,02/26.6791/2018,152.8678,131.0488,134.7931,1.000714,1.541906,2000,12.5,4.0
# From MPC114599
C/2017 S7 (Lemmon),h,05/26.0201/2017,124.2329,262.7922,187.6311,1.001272,7.609645,2000,7.0,4.0
# From MPC114599
P/2017 S8 (PANSTARRS),e,29.8237,191.7251,254.7130,2.778343,0.2128263,0.39264846,172.7809,04/19.0/2020,2000,g 16.0,4.0
# From MPC107050
P/2017 S9 (PANSTARRS),e,14.1434,146.2175,237.7346,3.154225,0.1759402,0.30487948,176.0787,04/19.0/2020,2000,g 17.0,4.0
# From MPC114600
C/2017 T1 (Heinze),h,02/21.4704/2018,96.8365,102.3161,96.9057,1.000014,0.581259,2000,14.5,4.0
# From MPC119996
C/2017 T2 (PANSTARRS),e,57.2306,64.3780,92.9949,4272,0.0000035,0.99962191,0.0000,05/04.9526/2020,2000,g  5.0,4.0
# From MPC114600
C/2017 T3 (ATLAS),e,88.0309,230.0677,246.8337,1421,0.0000184,0.99941947,0.0000,07/19.0567/2018,2000,g 10.0,4.0
# From MPC115882
P/2017 TW13 (Lemmon),e,44.8468,322.2856,120.0553,7.149915,0.0515529,0.70938270,34.4449,04/19.0/2020,2000,g 15.0,2.0
# From MPC114600
C/2017 U2 (Fuls),e,95.3948,149.7126,147.7646,4676,0.0000031,0.99856657,0.0000,08/28.2844/2017,2000,g  9.0,4.0
# From MPC114600
P/2017 U3 (PANSTARRS),e,15.9123,165.1101,297.1617,4.932294,0.0899768,0.09898129,32.9320,04/19.0/2020,2000,g 11.0,4.0
# From MPC114600
C/2017 U4 (PANSTARRS),h,09/24.2702/2018,158.2224,245.9501,159.0848,1.003472,7.722823,2000,7.0,4.0
# From MPC114600
C/2017 U5 (PANSTARRS),e,18.9666,163.0873,262.0726,16.87934,0.0142125,0.74384726,12.1166,04/19.0/2020,2000,g 12.0,4.0
# From MPC118841
C/2017 U7,h,09/12.7050/2019,142.6284,276.2361,326.1527,1.002922,6.418566,2000,8.3,2.0
# From MPC114600
C/2017 W2 (Leonard),e,98.1987,312.8347,169.1103,13.68583,0.0194669,0.71098010,17.5075,04/19.0/2020,2000,g 11.0,4.0
# From MPC114601
P/2017 W3 (Gibbs),e,18.1880,210.4372,327.5129,7.842218,0.0448793,0.50866603,34.9847,04/19.0/2020,2000,g 10.5,4.0
# From MPC115883
C/2017 X1 (PANSTARRS),e,31.3048,251.1295,283.2722,31.47928,0.0055804,0.85173713,3.7582,04/19.0/2020,2000,g 10.0,4.0
# From MPC117069
C/2017 Y1 (PANSTARRS),e,55.2639,307.5262,134.3675,2010,0.0000109,0.99815135,0.0000,08/31.1632/2017,2000,g 11.5,4.0
# From MPC118841
C/2017 Y2 (PANSTARRS),h,11/04.4666/2020,128.4292,65.9748,147.8373,1.000580,4.632323,2000,15.0,4.0
# From MPC111770
P/2017 Y3 (Leonard),e,27.5703,153.8607,67.5720,9.851929,0.0318729,0.87036581,25.4329,04/19.0/2020,2000,g 16.5,4.0
# From MPC114601
C/2018 A1 (PANSTARRS),e,53.5907,336.6353,96.3218,25.12817,0.0078246,0.90379183,7.1338,04/19.0/2020,2000,g 12.5,4.0
# From MPC119996
C/2018 A3 (ATLAS),e,139.5542,194.2918,86.4146,499.4146,0.0000883,0.99343992,0.0000,01/12.7768/2019,2000,g  8.5,4.0
# From MPC114601
C/2018 A4 (PANSTARRS),e,3.1481,97.6349,356.0887,12.22374,0.0230620,0.80350220,16.1761,04/19.0/2020,2000,g 14.0,4.0
# From MPC109147
P/2018 A5 (PANSTARRS),e,23.5778,87.8308,359.6265,5.638954,0.0736048,0.52224717,69.0926,04/19.0/2020,2000,g 15.0,4.0
# From MPC119996
C/2018 A6 (Gibbs),e,76.9570,340.3840,264.5452,15.34966,0.0163891,0.80338119,4.5837,04/19.0/2020,2000,g  9.0,4.0
# From MPC118841
C/2018 B1 (Lemmon),h,03/29.9032/2018,162.4207,133.1888,68.3173,1.001833,5.115370,2000,9.0,4.0
# From MPC114601
P/2018 C1 (Lemmon-Read),e,5.1358,270.3919,235.4389,5.646508,0.0734572,0.53526280,57.3984,04/19.0/2020,2000,g 13.5,4.0
# From MPC114601
C/2018 C2 (Lemmon),h,06/01.9999/2018,34.4582,91.1385,134.1116,1.001027,1.956811,2000,13.0,4.0
# From MPEC 2020-AA5
C/2018 DO4 (Lemmon),e,160.4741,251.1318,175.9628,25.79585,0.0075228,0.90673314,1.8403,04/19.0/2020,2000,g 11.0,4.0
# From MPC114602
C/2018 E1 (ATLAS),e,72.5037,146.8510,299.4410,54.06558,0.0024793,0.94997944,1.8167,04/19.0/2020,2000,g 10.5,4.0
# From MPC114602
C/2018 E2 (Barros),e,97.7320,67.2007,277.4815,3538,0.0000047,0.99889173,0.0000,12/23.9176/2017,2000,g 10.5,4.0
# From MPC114602
C/2018 EN4 (NEOWISE),e,81.5929,136.1529,35.0123,18.31285,0.0125768,0.92088199,8.5708,04/19.0/2020,2000,g 15.0,4.0
# From MPC114602
C/2018 EF9 (Lemmon),e,84.6644,172.5756,72.6206,595.5833,0.0000678,0.99738572,0.0000,05/23.0396/2018,2000,g 18.0,2.0
# From MPC115883
C/2018 F1 (Grauer),e,46.0755,177.2763,71.6385,301.0018,0.0001887,0.99005491,0.0000,12/14.0111/2018,2000,g 11.5,4.0
# From MPC110084
C/2018 F3 (Johnson),p,08/15.2314/2017,105.5348,293.0113,2.483172,173.0311,2000,13.0,4.0
# From MPC119996
C/2018 F4 (PANSTARRS),h,12/04.1229/2019,78.0982,26.5083,263.2184,1.001486,3.439889,2000,11.9,2.0
# From MPC114602
P/2018 H2 (PANSTARRS),e,7.3881,68.4341,120.0316,4.396725,0.1069080,0.53987007,87.3494,04/19.0/2020,2000,g 16.6,2.0
# From MPC114602
C/2018 K1 (Weiland),e,164.1961,260.0157,325.0060,29.85249,0.0060427,0.93702712,4.4913,04/19.0/2020,2000,g 14.9,4.0
# From MPC118094
C/2018 KJ3 (Lemmon),e,136.7093,91.5942,217.6336,742.4375,0.0000487,0.99511233,0.0000,09/09.5376/2019,2000,g 12.2,2.0
# From MPC114602
P/2018 L1 (PANSTARRS),e,10.5946,268.6270,17.9390,3.649246,0.1413837,0.48304072,73.9998,04/19.0/2020,2000,g 15.0,4.0
# From MPC118841
C/2018 L2 (ATLAS),e,67.4144,243.0221,56.2542,253.1746,0.0002447,0.99323727,0.0000,12/02.6370/2018,2000,g 10.0,4.0
# From MPC114603
P/2018 L4 (PANSTARRS),e,26.6234,145.1713,140.5059,4.937962,0.0898219,0.66032036,56.3267,04/19.0/2020,2000,g 17.5,4.0
# From MPC119996
P/2018 L5 (Leonard),e,2.2087,219.1502,93.7329,3.626962,0.1426887,0.36478270,102.0459,04/19.0/2020,2000,g 14.5,4.0
# From MPC117070
C/2018 M1 (Catalina),e,37.2737,339.4332,14.1450,21.30528,0.0100224,0.93885114,6.5034,04/19.0/2020,2000,g 15.5,4.0
# From MPC112393
C/2018 N1 (NEOWISE),e,159.4452,292.4425,354.5799,334.1321,0.0001614,0.99608449,0.0000,08/01.9143/2018,2000,g 15.5,4.0
# From MPC119996
C/2018 N2 (ASASSN),h,11/10.9635/2019,77.5295,25.2568,24.3973,1.000135,3.124646,2000,6.0,4.0
# From MPC114603
C/2018 O1 (ATLAS),e,154.0426,87.6254,162.5252,27.79762,0.0067250,0.94391374,4.0113,04/19.0/2020,2000,g 17.0,4.0
# From MPC114603
P/2018 P3 (PANSTARRS),e,8.9083,59.2012,305.8665,3.006860,0.1890315,0.41614688,105.3823,04/19.0/2020,2000,g 14.5,4.0
# From MPC114603
P/2018 P4 (PANSTARRS),e,23.1066,353.0924,8.1567,6.666605,0.0572594,0.45006292,30.2580,04/19.0/2020,2000,g 12.0,4.0
# From MPC118094
C/2018 P5 (PANSTARRS),e,7.2553,216.2456,131.6692,12.77404,0.0215880,0.64175321,9.0115,04/19.0/2020,2000,g 11.0,4.0
# From MPC118841
C/2018 R3 (Lemmon),e,69.7209,324.6282,112.8669,1848,0.0000124,0.99930162,0.0000,06/07.1931/2019,2000,g  9.5,4.0
# From MPC112393
C/2018 R4 (Fuls),e,11.6836,298.4370,345.2269,318.6621,0.0001733,0.99462983,0.0000,03/03.6887/2018,2000,g 14.0,4.0
# From MPC114603
C/2018 R5 (Lemmon),e,103.7498,171.1385,178.0296,22.80411,0.0090507,0.84117855,4.2084,04/19.0/2020,2000,g 11.5,4.0
# From MPC119996
C/2018 U1 (Lemmon),h,11/02.7665/2021,108.3017,75.4767,180.4085,1.000517,4.994483,2000,5.0,4.0
# From MPC114604
C/2018 V1 (Machholz-Fujikawa-Iwamoto),h,12/03.4972/2018,144.0538,128.8792,88.8384,1.000430,0.385764,2000,12.0,4.0
# From MPC115884
C/2018 V2 (ATLAS),e,159.1252,356.8453,318.7751,25.48712,0.0076599,0.90280600,3.8988,04/19.0/2020,2000,g 15.0,4.0
# From MPC114604
P/2018 VN2 (Leonard),e,18.2470,226.5392,138.7257,4.065109,0.1202530,0.47816201,82.2082,04/19.0/2020,2000,g 15.0,4.0
# From MPC117070
A/2018 V3,e,164.9777,308.6591,3.4938,120.6949,0.0007433,0.98890249,0.0000,09/08.6837/2019,2000,g 15.7,2.0
# From MPC114604
C/2018 V4 (Africano),e,69.0040,78.3791,359.9732,210.4794,0.0003228,0.98480364,0.0000,03/01.5426/2019,2000,g 12.5,4.0
# From MPC114604
P/2018 V5 (Trujillo-Sheppard),e,10.5822,171.2991,260.7419,8.955556,0.0367761,0.47447514,20.7376,04/19.0/2020,2000,g 12.5,4.0
# From MPC115884
C/2018 W1 (Catalina),e,83.2608,233.5915,251.2589,21.79454,0.0096868,0.93757735,3.3241,04/19.0/2020,2000,g 15.7,2.0
# From MPC119996
C/2018 W2 (Africano),h,09/05.7257/2019,116.6167,181.8528,157.9771,1.000666,1.454727,2000,9.5,4.0
# From MPC119996
C/2018 X2 (Fitzsimmons),e,23.0695,340.8290,162.0573,151.3534,0.0005293,0.98595275,0.0000,07/08.5357/2019,2000,g 12.0,4.0
# From MPC114604
